{"type": "FeatureCollection", "features": [ {"type": "Feature", "properties": {"norad_id": 36539, "name": "COSMOS 2251 DEB", "group": "cosmos-2251-debris", "lat": 50.07380555860185, "lon": -141.48359416215538, "alt_km": 686.1387780437444, "timestamp": "2025-12-10T23:33:13.215131+00:00", "meta": {"OBJECT_NAME": "COSMOS 2251 DEB", "OBJECT_ID": "1993-036BCZ", "EPOCH": "2025-12-10T14:44:42.252288", "MEAN_MOTION": 14.59278561, "ECCENTRICITY": 0.0027327, "INCLINATION": 74.0238, "RA_OF_ASC_NODE": 59.2341, "ARG_OF_PERICENTER": 204.7285, "MEAN_ANOMALY": 155.2572, "EPHEMERIS_TYPE": 0, "CLASSIFICATION_TYPE": "U", "NORAD_CAT_ID": 36539, "ELEMENT_SET_NO": 999, "REV_AT_EPOCH": 83916, "BSTAR": 0.0011708678, "MEAN_MOTION_DOT": 5.534e-05, "MEAN_MOTION_DDOT": 0}, "tle": {"line1": "1 36539U 93036BCZ 25344.61437792  .00005534  00000+0  11709-2 0  9990", "line2": "2 36539  74.0238  59.2341 0027327 204.7285 155.2572 14.59278561839167"}}, "geometry": {"type": "Point", "coordinates": [-141.48359416215538, 50.07380555860185]}}, {"type": "Feature", "properties": {"norad_id": 36540, "name": "COSMOS 2251 DEB", "group": "cosmos-2251-debris", "lat": 73.44330941523698, "lon": -70.58152579965069, "alt_km": 700.8186679774835, "timestamp": "2025-12-10T23:33:13.215140+00:00", "meta": {"OBJECT_NAME": "COSMOS 2251 DEB", "OBJECT_ID": "1993-036BDA", "EPOCH": "2025-12-10T06:39:32.334048", "MEAN_MOTION": 14.58442715, "ECCENTRICITY": 0.0015131, "INCLINATION": 74.0281, "RA_OF_ASC_NODE": 185.2051, "ARG_OF_PERICENTER": 255.4222, "MEAN_ANOMALY": 104.5265, "EPHEMERIS_TYPE": 0, "CLASSIFICATION_TYPE": "U", "NORAD_CAT_ID": 36540, "ELEMENT_SET_NO": 999, "REV_AT_EPOCH": 85974, "BSTAR": 0.001482, "MEAN_MOTION_DOT": 6.863e-05, "MEAN_MOTION_DDOT": 0}, "tle": {"line1": "1 36540U 93036BDA 25344.27745757  .00006863  00000+0  14820-2 0  9990", "line2": "2 36540  74.0281 185.2051 0015131 255.4222 104.5265 14.58442715859744"}}, "geometry": {"type": "Point", "coordinates": [-70.58152579965069, 73.44330941523698]}}, {"type": "Feature", "properties": {"norad_id": 36550, "name": "COSMOS 2251 DEB", "group": "cosmos-2251-debris", "lat": 46.086358000179104, "lon": -1.364662525090329, "alt_km": 820.7340584267895, "timestamp": "2025-12-10T23:33:13.215149+00:00", "meta": {"OBJECT_NAME": "COSMOS 2251 DEB", "OBJECT_ID": "1993-036BDL", "EPOCH": "2025-12-10T07:47:30.355296", "MEAN_MOTION": 14.27188592, "ECCENTRICITY": 0.00785726, "INCLINATION": 74.0439, "RA_OF_ASC_NODE": 197.11, "ARG_OF_PERICENTER": 248.3043, "MEAN_ANOMALY": 110.9727, "EPHEMERIS_TYPE": 0, "CLASSIFICATION_TYPE": "U", "NORAD_CAT_ID": 36550, "ELEMENT_SET_NO": 999, "REV_AT_EPOCH": 84561, "BSTAR": 0.00085111774, "MEAN_MOTION_DOT": 2.122e-05, "MEAN_MOTION_DDOT": 0}, "tle": {"line1": "1 36550U 93036BDL 25344.32465689  .00002122  00000+0  85112-3 0  9997", "line2": "2 36550  74.0439 197.1100 0078572 248.3043 110.9727 14.27188592845618"}}, "geometry": {"type": "Point", "coordinates": [-1.364662525090329, 46.086358000179104]}}, {"type": "Feature", "properties": {"norad_id": 36551, "name": "COSMOS 2251 DEB", "group": "cosmos-2251-debris", "lat": 66.56498845083888, "lon": 60.15643307230069, "alt_km": 561.4169980657261, "timestamp": "2025-12-10T23:33:13.215158+00:00", "meta": {"OBJECT_NAME": "COSMOS 2251 DEB", "OBJECT_ID": "1993-036BDM", "EPOCH": "2025-12-10T08:50:58.961472", "MEAN_MOTION": 15.0244144, "ECCENTRICITY": 0.00508419, "INCLINATION": 73.886, "RA_OF_ASC_NODE": 19.5853, "ARG_OF_PERICENTER": 329.1413, "MEAN_ANOMALY": 30.6788, "EPHEMERIS_TYPE": 0, "CLASSIFICATION_TYPE": "U", "NORAD_CAT_ID": 36551, "ELEMENT_SET_NO": 999, "REV_AT_EPOCH": 66896, "BSTAR": 0.0019097723, "MEAN_MOTION_DOT": 0.00026098, "MEAN_MOTION_DDOT": 0}, "tle": {"line1": "1 36551U 93036BDM 25344.36873798  .00026098  00000+0  19098-2 0  9993", "line2": "2 36551  73.8860  19.5853 0050841 329.1413  30.6788 15.02441440668968"}}, "geometry": {"type": "Point", "coordinates": [60.15643307230069, 66.56498845083888]}}, {"type": "Feature", "properties": {"norad_id": 36557, "name": "COSMOS 2251 DEB", "group": "cosmos-2251-debris", "lat": -27.393260833261508, "lon": -41.720385910747524, "alt_km": 636.2269759390583, "timestamp": "2025-12-10T23:33:13.215167+00:00", "meta": {"OBJECT_NAME": "COSMOS 2251 DEB", "OBJECT_ID": "1993-036BDT", "EPOCH": "2025-12-08T17:00:11.364768", "MEAN_MOTION": 14.77931999, "ECCENTRICITY": 0.00210313, "INCLINATION": 73.9794, "RA_OF_ASC_NODE": 134.1932, "ARG_OF_PERICENTER": 285.3686, "MEAN_ANOMALY": 74.5165, "EPHEMERIS_TYPE": 0, "CLASSIFICATION_TYPE": "U", "NORAD_CAT_ID": 36557, "ELEMENT_SET_NO": 999, "REV_AT_EPOCH": 33837, "BSTAR": 0.00427946, "MEAN_MOTION_DOT": 0.00031056, "MEAN_MOTION_DDOT": 0}, "tle": {"line1": "1 36557U 93036BDT 25342.70846487  .00031056  00000+0  42795-2 0  9990", "line2": "2 36557  73.9794 134.1932 0021031 285.3686  74.5165 14.77931999338376"}}, "geometry": {"type": "Point", "coordinates": [-41.720385910747524, -27.393260833261508]}}, {"type": "Feature", "properties": {"norad_id": 36558, "name": "COSMOS 2251 DEB", "group": "cosmos-2251-debris", "lat": -63.05000996672421, "lon": 123.62252954415295, "alt_km": 708.7253594754038, "timestamp": "2025-12-10T23:33:13.215176+00:00", "meta": {"OBJECT_NAME": "COSMOS 2251 DEB", "OBJECT_ID": "1993-036BDU", "EPOCH": "2025-12-09T18:10:09.606432", "MEAN_MOTION": 14.55323693, "ECCENTRICITY": 0.00129627, "INCLINATION": 74.0418, "RA_OF_ASC_NODE": 160.1895, "ARG_OF_PERICENTER": 248.6111, "MEAN_ANOMALY": 111.367, "EPHEMERIS_TYPE": 0, "CLASSIFICATION_TYPE": "U", "NORAD_CAT_ID": 36558, "ELEMENT_SET_NO": 999, "REV_AT_EPOCH": 85225, "BSTAR": 0.0013992246, "MEAN_MOTION_DOT": 6.051e-05, "MEAN_MOTION_DDOT": 0}, "tle": {"line1": "1 36558U 93036BDU 25343.75705563  .00006051  00000+0  13992-2 0  9990", "line2": "2 36558  74.0418 160.1895 0012962 248.6111 111.3670 14.55323693852258"}}, "geometry": {"type": "Point", "coordinates": [123.62252954415295, -63.05000996672421]}}, {"type": "Feature", "properties": {"norad_id": 36559, "name": "COSMOS 2251 DEB", "group": "cosmos-2251-debris", "lat": 29.48558715256719, "lon": -176.4400899728721, "alt_km": 946.2377891973938, "timestamp": "2025-12-10T23:33:13.215185+00:00", "meta": {"OBJECT_NAME": "COSMOS 2251 DEB", "OBJECT_ID": "1993-036BDV", "EPOCH": "2025-12-09T02:07:20.280288", "MEAN_MOTION": 13.95143806, "ECCENTRICITY": 0.02599602, "INCLINATION": 74.1299, "RA_OF_ASC_NODE": 16.0496, "ARG_OF_PERICENTER": 49.9692, "MEAN_ANOMALY": 312.3935, "EPHEMERIS_TYPE": 0, "CLASSIFICATION_TYPE": "U", "NORAD_CAT_ID": 36559, "ELEMENT_SET_NO": 999, "REV_AT_EPOCH": 81043, "BSTAR": 0.0028021544, "MEAN_MOTION_DOT": 4.995e-05, "MEAN_MOTION_DDOT": 0}, "tle": {"line1": "1 36559U 93036BDV 25343.08842917  .00004995  00000+0  28022-2 0  9997", "line2": "2 36559  74.1299  16.0496 0259960  49.9692 312.3935 13.95143806810430"}}, "geometry": {"type": "Point", "coordinates": [-176.4400899728721, 29.48558715256719]}}, {"type": "Feature", "properties": {"norad_id": 36614, "name": "COSMOS 2251 DEB", "group": "cosmos-2251-debris", "lat": -72.22830124059197, "lon": 114.56828418104884, "alt_km": 689.4637130880219, "timestamp": "2025-12-10T23:33:13.215194+00:00", "meta": {"OBJECT_NAME": "COSMOS 2251 DEB", "OBJECT_ID": "1993-036BEC", "EPOCH": "2025-12-09T19:58:34.750560", "MEAN_MOTION": 14.60202998, "ECCENTRICITY": 0.00162232, "INCLINATION": 74.0212, "RA_OF_ASC_NODE": 180.1387, "ARG_OF_PERICENTER": 250.2574, "MEAN_ANOMALY": 109.6842, "EPHEMERIS_TYPE": 0, "CLASSIFICATION_TYPE": "U", "NORAD_CAT_ID": 36614, "ELEMENT_SET_NO": 999, "REV_AT_EPOCH": 65570, "BSTAR": 0.0020039773, "MEAN_MOTION_DOT": 9.662e-05, "MEAN_MOTION_DDOT": 0}, "tle": {"line1": "1 36614U 93036BEC 25343.83234665  .00009662  00000+0  20040-2 0  9995", "line2": "2 36614  74.0212 180.1387 0016223 250.2574 109.6842 14.60202998655709"}}, "geometry": {"type": "Point", "coordinates": [114.56828418104884, -72.22830124059197]}}, {"type": "Feature", "properties": {"norad_id": 36622, "name": "COSMOS 2251 DEB", "group": "cosmos-2251-debris", "lat": -57.40252076528973, "lon": -4.437029576128504, "alt_km": 612.9238605627652, "timestamp": "2025-12-10T23:33:13.215204+00:00", "meta": {"OBJECT_NAME": "COSMOS 2251 DEB", "OBJECT_ID": "1993-036BEL", "EPOCH": "2025-12-07T18:00:44.362080", "MEAN_MOTION": 14.76130008, "ECCENTRICITY": 0.00687085, "INCLINATION": 74.0127, "RA_OF_ASC_NODE": 155.2579, "ARG_OF_PERICENTER": 291.6324, "MEAN_ANOMALY": 67.7541, "EPHEMERIS_TYPE": 0, "CLASSIFICATION_TYPE": "U", "NORAD_CAT_ID": 36622, "ELEMENT_SET_NO": 999, "REV_AT_EPOCH": 66676, "BSTAR": 0.0010654006, "MEAN_MOTION_DOT": 7.621e-05, "MEAN_MOTION_DDOT": 0}, "tle": {"line1": "1 36622U 93036BEL 25341.75051345  .00007621  00000+0  10654-2 0  9998", "line2": "2 36622  74.0127 155.2579 0068708 291.6324  67.7541 14.76130008666763"}}, "geometry": {"type": "Point", "coordinates": [-4.437029576128504, -57.40252076528973]}}, {"type": "Feature", "properties": {"norad_id": 36632, "name": "COSMOS 2251 DEB", "group": "cosmos-2251-debris", "lat": -66.27261261608477, "lon": 156.38736768028818, "alt_km": 774.8821453272767, "timestamp": "2025-12-10T23:33:13.215213+00:00", "meta": {"OBJECT_NAME": "COSMOS 2251 DEB", "OBJECT_ID": "1993-036BEW", "EPOCH": "2025-12-08T03:50:26.997216", "MEAN_MOTION": 14.43133085, "ECCENTRICITY": 0.00317609, "INCLINATION": 74.0032, "RA_OF_ASC_NODE": 300.8928, "ARG_OF_PERICENTER": 49.809, "MEAN_ANOMALY": 310.5839, "EPHEMERIS_TYPE": 0, "CLASSIFICATION_TYPE": "U", "NORAD_CAT_ID": 36632, "ELEMENT_SET_NO": 999, "REV_AT_EPOCH": 65149, "BSTAR": 0.0011897932, "MEAN_MOTION_DOT": 3.995e-05, "MEAN_MOTION_DDOT": 0}, "tle": {"line1": "1 36632U 93036BEW 25342.16003469  .00003995  00000+0  11898-2 0  9990", "line2": "2 36632  74.0032 300.8928 0031760  49.8090 310.5839 14.43133085651491"}}, "geometry": {"type": "Point", "coordinates": [156.38736768028818, -66.27261261608477]}}]}